start=new Date('%Y-%m-57T00:00:00.000Z').valueOf();
sats=[{"OBJECT_TYPE":"PAYLOAD","SITE":"AFETR","MEAN_MOTION_DDOT":"0.0000000000000","COUNTRY_CODE":"US","EPOCH":"2021-08-21T13:37:34.635936","TLE_LINE1":"1 48150U 21027BL  21233.56776199  .00000927  00000-0  81124-4 0  9999","OBJECT_ID":"2021-027BL","APOAPSIS":"548.326","FILE":"3100831","PERIAPSIS":"546.115","MEAN_ANOMALY":"255.2186","TLE_LINE2":"2 48150  53.0763  48.5838 0001597 104.8980 255.2186 15.06397737 22339","EPHEMERIS_TYPE":"0","RA_OF_ASC_NODE":"48.5838","PERIOD":"95.592","REF_FRAME":"TEME","SEMIMAJOR_AXIS":"6925.355","TIME_SYSTEM":"UTC","MEAN_MOTION":"15.06397737","ECCENTRICITY":"0.00015970","CENTER_NAME":"EARTH","CLASSIFICATION_TYPE":"U","GP_ID":"183186105","REV_AT_EPOCH":"2233","ELEMENT_SET_NO":"999","INCLINATION":"53.0763","NORAD_CAT_ID":"48150","MEAN_MOTION_DOT":"0.00000927","RCS_SIZE":"LARGE","BSTAR":"0.00008112400000","OBJECT_NAME":"STARLINK-2493","MEAN_ELEMENT_THEORY":"SGP4","ARG_OF_PERICENTER":"104.8980","LAUNCH_DATE":"2021-04-07","DECAY_DATE":null},{"OBJECT_NAME":"STARLINK-2503","BSTAR":"-0.00005866800000","MEAN_ELEMENT_THEORY":"SGP4","ARG_OF_PERICENTER":"99.8467","LAUNCH_DATE":"2021-04-07","DECAY_DATE":null,"REV_AT_EPOCH":"2224","ELEMENT_SET_NO":"999","NORAD_CAT_ID":"48151","INCLINATION":"53.0725","RCS_SIZE":"LARGE","MEAN_MOTION_DOT":"-0.00001155","RA_OF_ASC_NODE":"51.2688","PERIOD":"95.592","SEMIMAJOR_AXIS":"6925.347","REF_FRAME":"TEME","ECCENTRICITY":"0.00019740","CENTER_NAME":"EARTH","MEAN_MOTION":"15.06400378","TIME_SYSTEM":"UTC","CLASSIFICATION_TYPE":"U","GP_ID":"183185856","SITE":"AFETR","OBJECT_TYPE":"PAYLOAD","MEAN_MOTION_DDOT":"0.0000000000000","COUNTRY_CODE":"US","EPOCH":"2021-08-20T23:23:01.615200","TLE_LINE1":"1 48151U 21027BM  21232.97432425 -.00001155  00000-0 -58668-4 0  9998","FILE":"3100831","APOAPSIS":"548.579","OBJECT_ID":"2021-027BM","PERIAPSIS":"545.845","MEAN_ANOMALY":"260.2745","EPHEMERIS_TYPE":"0","TLE_LINE2":"2 48151  53.0725  51.2688 0001974  99.8467 260.2745 15.06400378 22247"},{"ECCENTRICITY":"0.00038130","CENTER_NAME":"EARTH","MEAN_MOTION":"15.73218302","TIME_SYSTEM":"UTC","CLASSIFICATION_TYPE":"U","GP_ID":"183186872","PERIOD":"91.532","RA_OF_ASC_NODE":"320.4706","SEMIMAJOR_AXIS":"6727.843","REF_FRAME":"TEME","FILE":"3100831","APOAPSIS":"352.273","OBJECT_ID":"2021-036A","PERIAPSIS":"347.143","MEAN_ANOMALY":"196.6230","EPHEMERIS_TYPE":"0","TLE_LINE2":"2 48276  53.0518 320.4706 0003813   8.5573 196.6230 15.73218302  3693","OBJECT_TYPE":"PAYLOAD","SITE":"AFETR","MEAN_MOTION_DDOT":"0.0000000000000","COUNTRY_CODE":"US","EPOCH":"2021-08-21T14:00:01.000224","TLE_LINE1":"1 48276U 21036A   21233.58334491  .00031137  00000-0  22518-3 0  9993","LAUNCH_DATE":"2021-04-29","DECAY_DATE":null,"BSTAR":"0.00022518000000","OBJECT_NAME":"STARLINK-2567","MEAN_ELEMENT_THEORY":"SGP4","ARG_OF_PERICENTER":"8.5573","ELEMENT_SET_NO":"999","NORAD_CAT_ID":"48276","INCLINATION":"53.0518","MEAN_MOTION_DOT":"0.00031137","RCS_SIZE":"LARGE","REV_AT_EPOCH":"369"},{"TLE_LINE2":"2 48277  53.0519 320.4703 0003416   6.9153 198.9281 15.73194228  3698","EPHEMERIS_TYPE":"0","MEAN_ANOMALY":"198.9281","PERIAPSIS":"347.478","OBJECT_ID":"2021-036B","FILE":"3100831","APOAPSIS":"352.075","EPOCH":"2021-08-21T14:00:01.000224","TLE_LINE1":"1 48277U 21036B   21233.58334491  .00005018  00000-0  40167-4 0  9994","COUNTRY_CODE":"US","MEAN_MOTION_DDOT":"0.0000000000000","OBJECT_TYPE":"PAYLOAD","SITE":"AFETR","GP_ID":"183185620","CLASSIFICATION_TYPE":"U","MEAN_MOTION":"15.73194228","TIME_SYSTEM":"UTC","ECCENTRICITY":"0.00034160","CENTER_NAME":"EARTH","REF_FRAME":"TEME","SEMIMAJOR_AXIS":"6727.912","RA_OF_ASC_NODE":"320.4703","PERIOD":"91.534","RCS_SIZE":"LARGE","MEAN_MOTION_DOT":"0.00005018","INCLINATION":"53.0519","NORAD_CAT_ID":"48277","ELEMENT_SET_NO":"999","REV_AT_EPOCH":"369","DECAY_DATE":null,"LAUNCH_DATE":"2021-04-29","ARG_OF_PERICENTER":"6.9153","MEAN_ELEMENT_THEORY":"SGP4","BSTAR":"0.00004016700000","OBJECT_NAME":"STARLINK-2569"},{"COUNTRY_CODE":"US","TLE_LINE1":"1 48278U 21036C   21233.58334491  .00005068  00000-0  40522-4 0  9995","EPOCH":"2021-08-21T14:00:01.000224","OBJECT_TYPE":"PAYLOAD","SITE":"AFETR","MEAN_MOTION_DDOT":"0.0000000000000","MEAN_ANOMALY":"195.8113","EPHEMERIS_TYPE":"0","TLE_LINE2":"2 48278  53.0519 320.4679 0003757  10.6655 195.8113 15.73195667  3696","FILE":"3100831","APOAPSIS":"352.300","OBJECT_ID":"2021-036C","PERIAPSIS":"347.245","SEMIMAJOR_AXIS":"6727.908","REF_FRAME":"TEME","RA_OF_ASC_NODE":"320.4679","PERIOD":"91.533","GP_ID":"183186370","CENTER_NAME":"EARTH","ECCENTRICITY":"0.00037570","MEAN_MOTION":"15.73195667","TIME_SYSTEM":"UTC","CLASSIFICATION_TYPE":"U","REV_AT_EPOCH":"369","MEAN_MOTION_DOT":"0.00005068","RCS_SIZE":"LARGE","ELEMENT_SET_NO":"999","NORAD_CAT_ID":"48278","INCLINATION":"53.0519","ARG_OF_PERICENTER":"10.6655","BSTAR":"0.00004052200000","OBJECT_NAME":"STARLINK-2543","MEAN_ELEMENT_THEORY":"SGP4","DECAY_DATE":null,"LAUNCH_DATE":"2021-04-29"},{"RA_OF_ASC_NODE":"320.4665","PERIOD":"91.535","SEMIMAJOR_AXIS":"6727.966","REF_FRAME":"TEME","CLASSIFICATION_TYPE":"U","CENTER_NAME":"EARTH","ECCENTRICITY":"0.00032190","MEAN_MOTION":"15.73175293","TIME_SYSTEM":"UTC","GP_ID":"183186622","MEAN_MOTION_DDOT":"0.0000000000000","SITE":"AFETR","OBJECT_TYPE":"PAYLOAD","EPOCH":"2021-08-21T14:00:01.000224","TLE_LINE1":"1 48279U 21036D   21233.58334491  .00032848  00000-0  23772-3 0  9999","COUNTRY_CODE":"US","PERIAPSIS":"347.665","APOAPSIS":"351.996","FILE":"3100831","OBJECT_ID":"2021-036D","EPHEMERIS_TYPE":"0","TLE_LINE2":"2 48279  53.0518 320.4665 0003219  14.4732 192.6068 15.73175293  3699","MEAN_ANOMALY":"192.6068","MEAN_ELEMENT_THEORY":"SGP4","OBJECT_NAME":"STARLINK-2580","BSTAR":"0.00023772000000","ARG_OF_PERICENTER":"14.4732","LAUNCH_DATE":"2021-04-29","DECAY_DATE":null,"REV_AT_EPOCH":"369","NORAD_CAT_ID":"48279","INCLINATION":"53.0518","ELEMENT_SET_NO":"999","RCS_SIZE":"LARGE","MEAN_MOTION_DOT":"0.00032848"},{"FILE":"3100831","APOAPSIS":"547.985","OBJECT_ID":"2021-036E","PERIAPSIS":"546.493","MEAN_ANOMALY":"230.9560","EPHEMERIS_TYPE":"0","TLE_LINE2":"2 48280  53.0561 353.9543 0001077 129.1525 230.9560 15.06391812 17724","SITE":"AFETR","OBJECT_TYPE":"PAYLOAD","MEAN_MOTION_DDOT":"0.0000000000000","COUNTRY_CODE":"US","TLE_LINE1":"1 48280U 21036E   21233.50463707 -.00001033  00000-0 -50459-4 0  9993","EPOCH":"2021-08-21T12:06:40.642848","ECCENTRICITY":"0.00010770","CENTER_NAME":"EARTH","MEAN_MOTION":"15.06391812","TIME_SYSTEM":"UTC","CLASSIFICATION_TYPE":"U","GP_ID":"183187372","PERIOD":"95.593","RA_OF_ASC_NODE":"353.9543","SEMIMAJOR_AXIS":"6925.374","REF_FRAME":"TEME","ELEMENT_SET_NO":"999","NORAD_CAT_ID":"48280","INCLINATION":"53.0561","MEAN_MOTION_DOT":"-0.00001033","RCS_SIZE":"LARGE","REV_AT_EPOCH":"1772","LAUNCH_DATE":"2021-04-29","DECAY_DATE":null,"OBJECT_NAME":"STARLINK-2565","BSTAR":"-0.00005045900000","MEAN_ELEMENT_THEORY":"SGP4","ARG_OF_PERICENTER":"129.1525"},{"ELEMENT_SET_NO":"999","NORAD_CAT_ID":"48281","INCLINATION":"53.0539","RCS_SIZE":"LARGE","MEAN_MOTION_DOT":"-0.00008106","REV_AT_EPOCH":"360","LAUNCH_DATE":"2021-04-29","DECAY_DATE":null,"BSTAR":"-0.00052596000000","OBJECT_NAME":"STARLINK-2520","MEAN_ELEMENT_THEORY":"SGP4","ARG_OF_PERICENTER":"77.7030","FILE":"3100831","APOAPSIS":"548.165","OBJECT_ID":"2021-036F","PERIAPSIS":"546.294","MEAN_ANOMALY":"279.4877","EPHEMERIS_TYPE":"0","TLE_LINE2":"2 48281  53.0539 333.6032 0001351  77.7030 279.4877 15.06394703  3605","SITE":"AFETR","OBJECT_TYPE":"PAYLOAD","MEAN_MOTION_DDOT":"0.0000000000000","COUNTRY_CODE":"US","TLE_LINE1":"1 48281U 21036F   21233.58334491 -.00008106  00000-0 -52596-3 0  9990","EPOCH":"2021-08-21T14:00:01.000224","CENTER_NAME":"EARTH","ECCENTRICITY":"0.00013510","MEAN_MOTION":"15.06394703","TIME_SYSTEM":"UTC","CLASSIFICATION_TYPE":"U","GP_ID":"183186120","PERIOD":"95.592","RA_OF_ASC_NODE":"333.6032","SEMIMAJOR_AXIS":"6925.365","REF_FRAME":"TEME"},{"ARG_OF_PERICENTER":"100.9431","MEAN_ELEMENT_THEORY":"SGP4","BSTAR":"-0.00046012000000","OBJECT_NAME":"STARLINK-2558","DECAY_DATE":null,"LAUNCH_DATE":"2021-04-29","REV_AT_EPOCH":"359","RCS_SIZE":"LARGE","MEAN_MOTION_DOT":"-0.00007127","INCLINATION":"53.0617","NORAD_CAT_ID":"48282","ELEMENT_SET_NO":"999","REF_FRAME":"TEME","SEMIMAJOR_AXIS":"6925.364","PERIOD":"95.592","RA_OF_ASC_NODE":"338.5669","GP_ID":"183185871","CLASSIFICATION_TYPE":"U","MEAN_MOTION":"15.06395111","TIME_SYSTEM":"UTC","ECCENTRICITY":"0.00011980","CENTER_NAME":"EARTH","TLE_LINE1":"1 48282U 21036G   21233.58334491 -.00007127  00000-0 -46012-3 0  9999","EPOCH":"2021-08-21T14:00:01.000224","COUNTRY_CODE":"US","MEAN_MOTION_DDOT":"0.0000000000000","SITE":"AFETR","OBJECT_TYPE":"PAYLOAD","TLE_LINE2":"2 48282  53.0617 338.5669 0001198 100.9431 128.7165 15.06395111  3594","EPHEMERIS_TYPE":"0","MEAN_ANOMALY":"128.7165","PERIAPSIS":"546.399","OBJECT_ID":"2021-036G","FILE":"3100831","APOAPSIS":"548.058"},{"RA_OF_ASC_NODE":"338.5347","PERIOD":"95.593","SEMIMAJOR_AXIS":"6925.399","REF_FRAME":"TEME","CLASSIFICATION_TYPE":"U","ECCENTRICITY":"0.00011440","CENTER_NAME":"EARTH","MEAN_MOTION":"15.06383698","TIME_SYSTEM":"UTC","GP_ID":"183187122","MEAN_MOTION_DDOT":"0.0000000000000","OBJECT_TYPE":"PAYLOAD","SITE":"AFETR","EPOCH":"2021-08-21T14:00:01.000224","TLE_LINE1":"1 48283U 21036H   21233.58334491 -.00007375  00000-0 -47692-3 0  9990","COUNTRY_CODE":"US","PERIAPSIS":"546.471","FILE":"3100831","APOAPSIS":"548.056","OBJECT_ID":"2021-036H","EPHEMERIS_TYPE":"0","TLE_LINE2":"2 48283  53.0711 338.5347 0001144  83.9788 165.7669 15.06383698  3596","MEAN_ANOMALY":"165.7669","MEAN_ELEMENT_THEORY":"SGP4","OBJECT_NAME":"STARLINK-2516","BSTAR":"-0.00047692000000","ARG_OF_PERICENTER":"83.9788","LAUNCH_DATE":"2021-04-29","DECAY_DATE":null,"REV_AT_EPOCH":"359","NORAD_CAT_ID":"48283","INCLINATION":"53.0711","ELEMENT_SET_NO":"999","MEAN_MOTION_DOT":"-0.00007375","RCS_SIZE":"LARGE"}];
